SES-2                   
1 37809U 11049A   26063.30558651 -.00000208  00000+0  00000+0 0  9991
2 37809   0.0190  76.8239 0002928 265.5950 202.6308  1.00272089 52914
QUETZSAT 1              
1 37826U 11054A   26063.34558462 -.00000253  00000+0  00000+0 0  9990
2 37826   0.0535 289.0086 0002753  70.1674 210.3159  1.00271265 48823
SES-4                   
1 38087U 12007A   26063.44766875 -.00000180  00000+0  00000+0 0  9998
2 38087   0.0364  64.5985 0002464 288.7781 307.9700  1.00269941 51177
SES-5                   
1 38652U 12036A   26063.37683795  .00000022  00000+0  00000+0 0  9993
2 38652   0.0601 311.1830 0002013  27.7089 323.8631  1.00272007 43405
ASTRA 2F                
1 38778U 12051A   26063.84970102  .00000140  00000+0  00000+0 0  9993
2 38778   0.0963 260.6963 0002507   9.3529 226.6283  1.00275639 40092
SES-6                   
1 39172U 13026A   26063.39905791 -.00000273  00000+0  00000+0 0  9995
2 39172   0.0661 288.6587 0001844  60.4201 276.2078  1.00272113 46673
O3B FM5                 
1 39188U 13031A   26063.09760381 -.00000028  00000+0  00000+0 0  9997
2 39188   0.0976  14.1291 0003337 319.9767  25.8709  5.00116461231774
O3B FM4                 
1 39189U 13031B   26062.81697351 -.00000028  00000+0  00000+0 0  9993
2 39189   0.0555 345.1409 0005037   5.4008   9.4419  5.00115238231777
O3B FM2                 
1 39190U 13031C   26063.08254995 -.00000028  00000+0  00000+0 0  9998
2 39190   0.0565 339.0319 0002838   0.9260  20.0242  5.00115986231850
O3B PFM                 
1 39191U 13031D   26062.29709969 -.00000028  00000+0  00000+0 0  9997
2 39191   0.0664   7.6623 0005107 349.0732   3.2541  5.00116017231378
ASTRA 2E                
1 39285U 13056A   26063.84970080  .00000140  00000+0  00000+0 0  9998
2 39285   0.0702  31.3641 0002189 306.4689 159.1172  1.00272285 45374
SES-8                   
1 39460U 13071A   26063.81356503 -.00000280  00000+0  00000+0 0  9991
2 39460   0.0572 272.3209 0001671  95.1305 182.9759  1.00272948 43394
ASTRA 5B                
1 39617U 14011B   26063.84636044  .00000127  00000+0  00000+0 0  9993
2 39617   0.0901 299.2577 0004118  27.2241 164.2665  1.00271213 43623
O3B FM3                 
1 40079U 14038A   26062.96339516 -.00000028  00000+0  00000+0 0  9993
2 40079   0.0530 353.4529 0000544  51.5720 314.9728  5.00115554207788
O3B FM7                 
1 40080U 14038B   26061.31035470 -.00000029  00000+0  00000+0 0  9996
2 40080   0.0588 348.9474 0004488 339.4059  31.6123  5.00115622212532
O3B FM6                 
1 40081U 14038C   26059.33845883 -.00000028  00000+0  00000+0 0  9992
2 40081   0.0550 351.2998 0002672 345.9055  22.7755  5.00115665212383
O3B FM8                 
1 40082U 14038D   26063.58947926 -.00000027  00000+0  00000+0 0  9995
2 40082   0.0558 350.6431 0002658 354.8269  14.5160  5.00115977212719
